HAWK-A                  
1 43765U 18099H   26068.67628545  .00008617  00000+0  36104-3 0  9995
2 43765  97.4051 122.2425 0034260 275.5523  84.1807 15.23231043397949
STARLINK-30865          
1 58226U 23170W   26068.00004630  .00006399  00000+0  24826-3 0  9992
2 58226  42.9990 186.7067 0001357 243.4599 281.8761 15.26709308  5745
